CCSDS_OMM_VERS = 2.0
CREATION_DATE  = 
ORIGINATOR     = 

OBJECT_NAME    = SL-3 R/B
OBJECT_ID      = 1982-039B
CENTER_NAME    = EARTH
REF_FRAME      = TEME
TIME_SYSTEM    = UTC
MEAN_ELEMENT_THEORY = SGP/SGP4

EPOCH          = 2025-11-19T13:40:56.765280
MEAN_MOTION    = 15.09338542
ECCENTRICITY   = .00316272
INCLINATION    = 81.1766
RA_OF_ASC_NODE = 342.7434
ARG_OF_PERICENTER = 329.1444
MEAN_ANOMALY   = 30.7921

EPHEMERIS_TYPE = 0
CLASSIFICATION_TYPE = U
NORAD_CAT_ID   = 13154
ELEMENT_SET_NO = 999
REV_AT_EPOCH   = 36502
BSTAR          = .16403861E-3
MEAN_MOTION_DOT = .267E-4
MEAN_MOTION_DDOT = 0

CCSDS_OMM_VERS = 2.0
CREATION_DATE  = 
ORIGINATOR     = 

OBJECT_NAME    = SL-3 R/B
OBJECT_ID      = 1982-079B
CENTER_NAME    = EARTH
REF_FRAME      = TEME
TIME_SYSTEM    = UTC
MEAN_ELEMENT_THEORY = SGP/SGP4

EPOCH          = 2025-11-19T13:26:53.754432
MEAN_MOTION    = 15.23234879
ECCENTRICITY   = .00257584
INCLINATION    = 81.1454
RA_OF_ASC_NODE = 322.9796
ARG_OF_PERICENTER = 174.6441
MEAN_ANOMALY   = 185.5073

EPHEMERIS_TYPE = 0
CLASSIFICATION_TYPE = U
NORAD_CAT_ID   = 13403
ELEMENT_SET_NO = 999
REV_AT_EPOCH   = 36092
BSTAR          = .23114184E-3
MEAN_MOTION_DOT = .5548E-4
MEAN_MOTION_DDOT = 0

CCSDS_OMM_VERS = 2.0
CREATION_DATE  = 
ORIGINATOR     = 

OBJECT_NAME    = SL-14 R/B
OBJECT_ID      = 1982-092B
CENTER_NAME    = EARTH
REF_FRAME      = TEME
TIME_SYSTEM    = UTC
MEAN_ELEMENT_THEORY = SGP/SGP4

EPOCH          = 2025-11-19T06:23:06.915264
MEAN_MOTION    = 14.86519564
ECCENTRICITY   = .00191973
INCLINATION    = 82.5686
RA_OF_ASC_NODE = 244.6622
ARG_OF_PERICENTER = 310.9733
MEAN_ANOMALY   = 164.4078

EPHEMERIS_TYPE = 0
CLASSIFICATION_TYPE = U
NORAD_CAT_ID   = 13553
ELEMENT_SET_NO = 999
REV_AT_EPOCH   = 31252
BSTAR          = .84553647E-4
MEAN_MOTION_DOT = .774E-5
MEAN_MOTION_DDOT = 0

CCSDS_OMM_VERS = 2.0
CREATION_DATE  = 
ORIGINATOR     = 

OBJECT_NAME    = SL-3 R/B
OBJECT_ID      = 1983-010B
CENTER_NAME    = EARTH
REF_FRAME      = TEME
TIME_SYSTEM    = UTC
MEAN_ELEMENT_THEORY = SGP/SGP4

EPOCH          = 2025-11-19T11:47:36.178080
MEAN_MOTION    = 15.42635275
ECCENTRICITY   = .00182015
INCLINATION    = 81.1020
RA_OF_ASC_NODE = 136.9779
ARG_OF_PERICENTER = 70.6723
MEAN_ANOMALY   = 289.6485

EPHEMERIS_TYPE = 0
CLASSIFICATION_TYPE = U
NORAD_CAT_ID   = 13819
ELEMENT_SET_NO = 999
REV_AT_EPOCH   = 34093
BSTAR          = .32008036E-3
MEAN_MOTION_DOT = .14054E-3
MEAN_MOTION_DDOT = 0

CCSDS_OMM_VERS = 2.0
CREATION_DATE  = 
ORIGINATOR     = 

OBJECT_NAME    = SL-3 R/B
OBJECT_ID      = 1983-075B
CENTER_NAME    = EARTH
REF_FRAME      = TEME
TIME_SYSTEM    = UTC
MEAN_ELEMENT_THEORY = SGP/SGP4

EPOCH          = 2025-11-19T12:38:54.284352
MEAN_MOTION    = 15.35500313
ECCENTRICITY   = .00209092
INCLINATION    = 97.6095
RA_OF_ASC_NODE = 319.2437
ARG_OF_PERICENTER = 263.0069
MEAN_ANOMALY   = 96.8795

EPHEMERIS_TYPE = 0
CLASSIFICATION_TYPE = U
NORAD_CAT_ID   = 14208
ELEMENT_SET_NO = 999
REV_AT_EPOCH   = 31323
BSTAR          = .31757876E-3
MEAN_MOTION_DOT = .1095E-3
MEAN_MOTION_DDOT = 0

CCSDS_OMM_VERS = 2.0
CREATION_DATE  = 
ORIGINATOR     = 

OBJECT_NAME    = COSMOS 1536
OBJECT_ID      = 1984-013A
CENTER_NAME    = EARTH
REF_FRAME      = TEME
TIME_SYSTEM    = UTC
MEAN_ELEMENT_THEORY = SGP/SGP4

EPOCH          = 2025-11-19T03:26:17.379744
MEAN_MOTION    = 15.22158952
ECCENTRICITY   = .00138617
INCLINATION    = 82.5476
RA_OF_ASC_NODE = 217.5552
ARG_OF_PERICENTER = 318.4380
MEAN_ANOMALY   = 41.5801

EPHEMERIS_TYPE = 0
CLASSIFICATION_TYPE = U
NORAD_CAT_ID   = 14699
ELEMENT_SET_NO = 999
REV_AT_EPOCH   = 25579
BSTAR          = .30512006E-3
MEAN_MOTION_DOT = .7047E-4
MEAN_MOTION_DDOT = 0

CCSDS_OMM_VERS = 2.0
CREATION_DATE  = 
ORIGINATOR     = 

OBJECT_NAME    = SL-14 R/B
OBJECT_ID      = 1984-027B
CENTER_NAME    = EARTH
REF_FRAME      = TEME
TIME_SYSTEM    = UTC
MEAN_ELEMENT_THEORY = SGP/SGP4

EPOCH          = 2025-11-19T12:34:54.977088
MEAN_MOTION    = 14.85839650
ECCENTRICITY   = .00174596
INCLINATION    = 82.5418
RA_OF_ASC_NODE = 348.3292
ARG_OF_PERICENTER = 343.3477
MEAN_ANOMALY   = 16.7163

EPHEMERIS_TYPE = 0
CLASSIFICATION_TYPE = U
NORAD_CAT_ID   = 14820
ELEMENT_SET_NO = 999
REV_AT_EPOCH   = 23127
BSTAR          = .6217072E-4
MEAN_MOTION_DOT = .566E-5
MEAN_MOTION_DDOT = 0

CCSDS_OMM_VERS = 2.0
CREATION_DATE  = 
ORIGINATOR     = 

OBJECT_NAME    = SL-8 R/B
OBJECT_ID      = 1985-006B
CENTER_NAME    = EARTH
REF_FRAME      = TEME
TIME_SYSTEM    = UTC
MEAN_ELEMENT_THEORY = SGP/SGP4

EPOCH          = 2025-11-19T12:16:27.347232
MEAN_MOTION    = 14.37700371
ECCENTRICITY   = .00177395
INCLINATION    = 74.0444
RA_OF_ASC_NODE = 103.8690
ARG_OF_PERICENTER = 43.1249
MEAN_ANOMALY   = 22.2477

EPHEMERIS_TYPE = 0
CLASSIFICATION_TYPE = U
NORAD_CAT_ID   = 15483
ELEMENT_SET_NO = 999
REV_AT_EPOCH   = 13819
BSTAR          = .1117284E-3
MEAN_MOTION_DOT = .31E-5
MEAN_MOTION_DDOT = 0

CCSDS_OMM_VERS = 2.0
CREATION_DATE  = 
ORIGINATOR     = 

OBJECT_NAME    = SL-12 R/B(2)
OBJECT_ID      = 1985-042D
CENTER_NAME    = EARTH
REF_FRAME      = TEME
TIME_SYSTEM    = UTC
MEAN_ELEMENT_THEORY = SGP/SGP4

EPOCH          = 2025-11-19T11:18:12.557952
MEAN_MOTION    = 14.21941435
ECCENTRICITY   = .00374692
INCLINATION    = 71.1078
RA_OF_ASC_NODE = 320.5789
ARG_OF_PERICENTER = 295.5271
MEAN_ANOMALY   = 177.2088

EPHEMERIS_TYPE = 0
CLASSIFICATION_TYPE = U
NORAD_CAT_ID   = 15772
ELEMENT_SET_NO = 999
REV_AT_EPOCH   = 9872
BSTAR          = .10370227E-3
MEAN_MOTION_DOT = .183E-5
MEAN_MOTION_DDOT = 0

CCSDS_OMM_VERS = 2.0
CREATION_DATE  = 
ORIGINATOR     = 

OBJECT_NAME    = SL-14 R/B
OBJECT_ID      = 1985-069B
CENTER_NAME    = EARTH
REF_FRAME      = TEME
TIME_SYSTEM    = UTC
MEAN_ELEMENT_THEORY = SGP/SGP4

EPOCH          = 2025-11-19T11:24:08.383392
MEAN_MOTION    = 14.86284093
ECCENTRICITY   = .00184352
INCLINATION    = 82.5246
RA_OF_ASC_NODE = 128.5749
ARG_OF_PERICENTER = 193.2331
MEAN_ANOMALY   = 166.8405

EPHEMERIS_TYPE = 0
CLASSIFICATION_TYPE = U
NORAD_CAT_ID   = 15945
ELEMENT_SET_NO = 999
REV_AT_EPOCH   = 15646
BSTAR          = .80397436E-4
MEAN_MOTION_DOT = .733E-5
MEAN_MOTION_DDOT = 0

CCSDS_OMM_VERS = 2.0
CREATION_DATE  = 
ORIGINATOR     = 

OBJECT_NAME    = SL-16 R/B
OBJECT_ID      = 1985-097B
CENTER_NAME    = EARTH
REF_FRAME      = TEME
TIME_SYSTEM    = UTC
MEAN_ELEMENT_THEORY = SGP/SGP4

EPOCH          = 2025-11-19T13:37:27.648768
MEAN_MOTION    = 14.16579103
ECCENTRICITY   = .00055128
INCLINATION    = 71.0043
RA_OF_ASC_NODE = 12.3877
ARG_OF_PERICENTER = 53.5545
MEAN_ANOMALY   = 109.7045

EPHEMERIS_TYPE = 0
CLASSIFICATION_TYPE = U
NORAD_CAT_ID   = 16182
ELEMENT_SET_NO = 999
REV_AT_EPOCH   = 7163
BSTAR          = .18036835E-3
MEAN_MOTION_DOT = .312E-5
MEAN_MOTION_DDOT = 0

CCSDS_OMM_VERS = 2.0
CREATION_DATE  = 
ORIGINATOR     = 

OBJECT_NAME    = SL-14 R/B
OBJECT_ID      = 1986-006B
CENTER_NAME    = EARTH
REF_FRAME      = TEME
TIME_SYSTEM    = UTC
MEAN_ELEMENT_THEORY = SGP/SGP4

EPOCH          = 2025-11-19T13:06:30.833280
MEAN_MOTION    = 14.86626240
ECCENTRICITY   = .00752123
INCLINATION    = 82.5282
RA_OF_ASC_NODE = 3.3749
ARG_OF_PERICENTER = 277.9815
MEAN_ANOMALY   = 81.2871

EPHEMERIS_TYPE = 0
CLASSIFICATION_TYPE = U
NORAD_CAT_ID   = 16496
ELEMENT_SET_NO = 999
REV_AT_EPOCH   = 13284
BSTAR          = .85810484E-4
MEAN_MOTION_DOT = .826E-5
MEAN_MOTION_DDOT = 0

