SL-3 R/B                
1 13154U 82039B   25323.57010145  .00002670  00000+0  16404-3 0  9996
2 13154  81.1766 342.7434 0031627 329.1444  30.7921 15.09338542365026
SL-3 R/B                
1 13403U 82079B   25323.56034438  .00005548  00000+0  23114-3 0  9990
2 13403  81.1454 322.9796 0025758 174.6441 185.5073 15.23234879360921
SL-14 R/B               
1 13553U 82092B   25323.26605226  .00000774  00000+0  84554-4 0  9999
2 13553  82.5686 244.6622 0019197 310.9733 164.4078 14.86519564312525
SL-3 R/B                
1 13819U 83010B   25323.49139095  .00014054  00000+0  32008-3 0  9998
2 13819  81.1020 136.9779 0018201  70.6723 289.6485 15.42635275340936
SL-3 R/B                
1 14208U 83075B   25323.52701718  .00010950  00000+0  31758-3 0  9995
2 14208  97.6095 319.2437 0020909 263.0069  96.8795 15.35500313313230
COSMOS 1536             
1 14699U 84013A   25323.14325671  .00007047  00000+0  30512-3 0  9990
2 14699  82.5476 217.5552 0013861 318.4380  41.5801 15.22158952255793
SL-14 R/B               
1 14820U 84027B   25323.52424742  .00000566  00000+0  62171-4 0  9998
2 14820  82.5418 348.3292 0017459 343.3477  16.7163 14.85839650231271
SL-8 R/B                
1 15483U 85006B   25323.51142763  .00000310  00000+0  11173-3 0  9993
2 15483  74.0444 103.8690 0017739  43.1249  22.2477 14.37700371138192
SL-12 R/B(2)            
1 15772U 85042D   25323.47097868  .00000183  00000+0  10370-3 0  9990
2 15772  71.1078 320.5789 0037469 295.5271 177.2088 14.21941435 98725
SL-14 R/B               
1 15945U 85069B   25323.47509703  .00000733  00000+0  80397-4 0  9995
2 15945  82.5246 128.5749 0018435 193.2331 166.8405 14.86284093156469
SL-16 R/B               
1 16182U 85097B   25323.56768112  .00000312  00000+0  18037-3 0  9995
2 16182  71.0043  12.3877 0005512  53.5545 109.7045 14.16579103 71633
SL-14 R/B               
1 16496U 86006B   25323.54619020  .00000826  00000+0  85810-4 0  9999
2 16496  82.5282   3.3749 0075212 277.9815  81.2871 14.86626240132841
